<?xml version="1.0" encoding="UTF-8"?>
<gpx version="1.1" creator="home-trainer" xmlns="http://www.topografix.com/GPX/1/1">
  <trk>
    <name>Col fictif (exemple)</name>
    <trkseg>
      <trkpt lat="45.200000" lon="5.750000"><ele>250.0</ele></trkpt>
      <trkpt lat="45.200343" lon="5.750412"><ele>250.2</ele></trkpt>
      <trkpt lat="45.200683" lon="5.750829"><ele>250.4</ele></trkpt>
      <trkpt lat="45.201018" lon="5.751256"><ele>250.3</ele></trkpt>
      <trkpt lat="45.201345" lon="5.751694"><ele>250.0</ele></trkpt>
      <trkpt lat="45.201661" lon="5.752148"><ele>250.1</ele></trkpt>
      <trkpt lat="45.201964" lon="5.752619"><ele>250.3</ele></trkpt>
      <trkpt lat="45.202252" lon="5.753110"><ele>250.4</ele></trkpt>
      <trkpt lat="45.202520" lon="5.753622"><ele>250.2</ele></trkpt>
      <trkpt lat="45.202766" lon="5.754156"><ele>250.0</ele></trkpt>
      <trkpt lat="45.202988" lon="5.754711"><ele>250.1</ele></trkpt>
      <trkpt lat="45.203180" lon="5.755288"><ele>250.4</ele></trkpt>
      <trkpt lat="45.203341" lon="5.755883"><ele>250.4</ele></trkpt>
      <trkpt lat="45.203468" lon="5.756496"><ele>250.1</ele></trkpt>
      <trkpt lat="45.203556" lon="5.757121"><ele>250.0</ele></trkpt>
      <trkpt lat="45.203605" lon="5.757755"><ele>250.3</ele></trkpt>
      <trkpt lat="45.203612" lon="5.758393"><ele>250.4</ele></trkpt>
      <trkpt lat="45.203575" lon="5.759029"><ele>250.3</ele></trkpt>
      <trkpt lat="45.203494" lon="5.759657"><ele>250.0</ele></trkpt>
      <trkpt lat="45.203369" lon="5.760269"><ele>250.1</ele></trkpt>
      <trkpt lat="45.203200" lon="5.760861"><ele>250.4</ele></trkpt>
      <trkpt lat="45.202989" lon="5.761424"><ele>250.4</ele></trkpt>
      <trkpt lat="45.202737" lon="5.761952"><ele>250.2</ele></trkpt>
      <trkpt lat="45.202448" lon="5.762441"><ele>250.0</ele></trkpt>
      <trkpt lat="45.202125" lon="5.762884"><ele>250.2</ele></trkpt>
      <trkpt lat="45.201771" lon="5.763277"><ele>250.4</ele></trkpt>
      <trkpt lat="45.201391" lon="5.763618"><ele>250.4</ele></trkpt>
      <trkpt lat="45.200989" lon="5.763904"><ele>250.1</ele></trkpt>
      <trkpt lat="45.200569" lon="5.764133"><ele>250.0</ele></trkpt>
      <trkpt lat="45.200137" lon="5.764306"><ele>250.3</ele></trkpt>
      <trkpt lat="45.199695" lon="5.764422"><ele>250.4</ele></trkpt>
      <trkpt lat="45.199247" lon="5.764485"><ele>250.3</ele></trkpt>
      <trkpt lat="45.198798" lon="5.764495"><ele>250.0</ele></trkpt>
      <trkpt lat="45.198349" lon="5.764457"><ele>250.1</ele></trkpt>
      <trkpt lat="45.197903" lon="5.764374"><ele>250.4</ele></trkpt>
      <trkpt lat="45.197462" lon="5.764249"><ele>250.4</ele></trkpt>
      <trkpt lat="45.197027" lon="5.764087"><ele>250.1</ele></trkpt>
      <trkpt lat="45.196599" lon="5.763892"><ele>250.0</ele></trkpt>
      <trkpt lat="45.196178" lon="5.763670"><ele>250.2</ele></trkpt>
      <trkpt lat="45.195763" lon="5.763423"><ele>250.4</ele></trkpt>
      <trkpt lat="45.195354" lon="5.763157"><ele>250.3</ele></trkpt>
      <trkpt lat="45.194950" lon="5.762877"><ele>250.1</ele></trkpt>
      <trkpt lat="45.194550" lon="5.762586"><ele>250.0</ele></trkpt>
      <trkpt lat="45.194152" lon="5.762288"><ele>250.3</ele></trkpt>
      <trkpt lat="45.193755" lon="5.761989"><ele>250.4</ele></trkpt>
      <trkpt lat="45.193357" lon="5.761692"><ele>250.2</ele></trkpt>
      <trkpt lat="45.192957" lon="5.761401"><ele>250.0</ele></trkpt>
      <trkpt lat="45.192553" lon="5.761121"><ele>250.1</ele></trkpt>
      <trkpt lat="45.192144" lon="5.760856"><ele>250.4</ele></trkpt>
      <trkpt lat="45.191729" lon="5.760610"><ele>250.4</ele></trkpt>
      <trkpt lat="45.191307" lon="5.760389"><ele>250.1</ele></trkpt>
      <trkpt lat="45.190879" lon="5.760195"><ele>250.0</ele></trkpt>
      <trkpt lat="45.190444" lon="5.760034"><ele>250.2</ele></trkpt>
      <trkpt lat="45.190003" lon="5.759911"><ele>250.4</ele></trkpt>
      <trkpt lat="45.189557" lon="5.759829"><ele>250.3</ele></trkpt>
      <trkpt lat="45.189108" lon="5.759793"><ele>250.0</ele></trkpt>
      <trkpt lat="45.188659" lon="5.759805"><ele>250.0</ele></trkpt>
      <trkpt lat="45.188211" lon="5.759869"><ele>250.3</ele></trkpt>
      <trkpt lat="45.187770" lon="5.759988"><ele>250.4</ele></trkpt>
      <trkpt lat="45.187337" lon="5.760162"><ele>250.2</ele></trkpt>
      <trkpt lat="45.186918" lon="5.760394"><ele>250.0</ele></trkpt>
      <trkpt lat="45.186517" lon="5.760681"><ele>252.1</ele></trkpt>
      <trkpt lat="45.186138" lon="5.761024"><ele>254.4</ele></trkpt>
      <trkpt lat="45.185785" lon="5.761419"><ele>256.4</ele></trkpt>
      <trkpt lat="45.185463" lon="5.761864"><ele>258.1</ele></trkpt>
      <trkpt lat="45.185175" lon="5.762353"><ele>260.0</ele></trkpt>
      <trkpt lat="45.184925" lon="5.762883"><ele>262.2</ele></trkpt>
      <trkpt lat="45.184715" lon="5.763447"><ele>264.4</ele></trkpt>
      <trkpt lat="45.184547" lon="5.764039"><ele>266.3</ele></trkpt>
      <trkpt lat="45.184424" lon="5.764652"><ele>268.0</ele></trkpt>
      <trkpt lat="45.184344" lon="5.765280"><ele>270.0</ele></trkpt>
      <trkpt lat="45.184309" lon="5.765916"><ele>272.3</ele></trkpt>
      <trkpt lat="45.184317" lon="5.766553"><ele>274.4</ele></trkpt>
      <trkpt lat="45.184368" lon="5.767187"><ele>276.2</ele></trkpt>
      <trkpt lat="45.184458" lon="5.767812"><ele>278.0</ele></trkpt>
      <trkpt lat="45.184585" lon="5.768424"><ele>280.1</ele></trkpt>
      <trkpt lat="45.184748" lon="5.769019"><ele>282.4</ele></trkpt>
      <trkpt lat="45.184941" lon="5.769594"><ele>284.4</ele></trkpt>
      <trkpt lat="45.185164" lon="5.770149"><ele>286.1</ele></trkpt>
      <trkpt lat="45.185411" lon="5.770682"><ele>288.0</ele></trkpt>
      <trkpt lat="45.185680" lon="5.771193"><ele>290.2</ele></trkpt>
      <trkpt lat="45.185968" lon="5.771683"><ele>292.4</ele></trkpt>
      <trkpt lat="45.186272" lon="5.772153"><ele>294.3</ele></trkpt>
      <trkpt lat="45.186588" lon="5.772606"><ele>296.0</ele></trkpt>
      <trkpt lat="45.186915" lon="5.773044"><ele>298.0</ele></trkpt>
      <trkpt lat="45.187250" lon="5.773470"><ele>300.3</ele></trkpt>
      <trkpt lat="45.187590" lon="5.773887"><ele>302.4</ele></trkpt>
      <trkpt lat="45.187934" lon="5.774299"><ele>304.2</ele></trkpt>
      <trkpt lat="45.188278" lon="5.774709"><ele>306.0</ele></trkpt>
      <trkpt lat="45.188622" lon="5.775121"><ele>308.1</ele></trkpt>
      <trkpt lat="45.188961" lon="5.775538"><ele>310.4</ele></trkpt>
      <trkpt lat="45.189296" lon="5.775965"><ele>313.6</ele></trkpt>
      <trkpt lat="45.189622" lon="5.776404"><ele>316.6</ele></trkpt>
      <trkpt lat="45.189938" lon="5.776858"><ele>319.8</ele></trkpt>
      <trkpt lat="45.190241" lon="5.777330"><ele>323.2</ele></trkpt>
      <trkpt lat="45.190527" lon="5.777821"><ele>326.7</ele></trkpt>
      <trkpt lat="45.190795" lon="5.778334"><ele>329.8</ele></trkpt>
      <trkpt lat="45.191041" lon="5.778868"><ele>332.8</ele></trkpt>
      <trkpt lat="45.191261" lon="5.779424"><ele>336.1</ele></trkpt>
      <trkpt lat="45.191453" lon="5.780001"><ele>339.6</ele></trkpt>
      <trkpt lat="45.191612" lon="5.780598"><ele>342.9</ele></trkpt>
      <trkpt lat="45.191737" lon="5.781210"><ele>345.9</ele></trkpt>
      <trkpt lat="45.191825" lon="5.781836"><ele>349.0</ele></trkpt>
      <trkpt lat="45.191872" lon="5.782470"><ele>352.4</ele></trkpt>
      <trkpt lat="45.191877" lon="5.783108"><ele>355.9</ele></trkpt>
      <trkpt lat="45.191839" lon="5.783744"><ele>359.1</ele></trkpt>
      <trkpt lat="45.191757" lon="5.784371"><ele>362.1</ele></trkpt>
      <trkpt lat="45.191630" lon="5.784983"><ele>365.3</ele></trkpt>
      <trkpt lat="45.191459" lon="5.785573"><ele>368.8</ele></trkpt>
      <trkpt lat="45.191247" lon="5.786135"><ele>372.2</ele></trkpt>
      <trkpt lat="45.190993" lon="5.786662"><ele>375.3</ele></trkpt>
      <trkpt lat="45.190703" lon="5.787149"><ele>378.3</ele></trkpt>
      <trkpt lat="45.190379" lon="5.787590"><ele>381.6</ele></trkpt>
      <trkpt lat="45.190024" lon="5.787982"><ele>385.1</ele></trkpt>
      <trkpt lat="45.189643" lon="5.788321"><ele>388.4</ele></trkpt>
      <trkpt lat="45.189240" lon="5.788604"><ele>391.4</ele></trkpt>
      <trkpt lat="45.188820" lon="5.788831"><ele>394.5</ele></trkpt>
      <trkpt lat="45.188387" lon="5.789002"><ele>397.9</ele></trkpt>
      <trkpt lat="45.187945" lon="5.789117"><ele>401.4</ele></trkpt>
      <trkpt lat="45.187497" lon="5.789177"><ele>404.6</ele></trkpt>
      <trkpt lat="45.187048" lon="5.789186"><ele>407.6</ele></trkpt>
      <trkpt lat="45.186599" lon="5.789146"><ele>410.0</ele></trkpt>
      <trkpt lat="45.186153" lon="5.789061"><ele>412.8</ele></trkpt>
      <trkpt lat="45.185713" lon="5.788935"><ele>415.4</ele></trkpt>
      <trkpt lat="45.185278" lon="5.788772"><ele>417.8</ele></trkpt>
      <trkpt lat="45.184850" lon="5.788576"><ele>420.0</ele></trkpt>
      <trkpt lat="45.184429" lon="5.788353"><ele>422.6</ele></trkpt>
      <trkpt lat="45.184014" lon="5.788105"><ele>425.4</ele></trkpt>
      <trkpt lat="45.183606" lon="5.787839"><ele>427.9</ele></trkpt>
      <trkpt lat="45.183202" lon="5.787558"><ele>430.1</ele></trkpt>
      <trkpt lat="45.182802" lon="5.787267"><ele>432.5</ele></trkpt>
      <trkpt lat="45.182404" lon="5.786969"><ele>435.2</ele></trkpt>
      <trkpt lat="45.182007" lon="5.786670"><ele>437.9</ele></trkpt>
      <trkpt lat="45.181609" lon="5.786373"><ele>440.3</ele></trkpt>
      <trkpt lat="45.181209" lon="5.786083"><ele>442.6</ele></trkpt>
      <trkpt lat="45.180805" lon="5.785803"><ele>445.0</ele></trkpt>
      <trkpt lat="45.180395" lon="5.785539"><ele>447.8</ele></trkpt>
      <trkpt lat="45.179980" lon="5.785294"><ele>450.4</ele></trkpt>
      <trkpt lat="45.179558" lon="5.785073"><ele>452.7</ele></trkpt>
      <trkpt lat="45.179130" lon="5.784881"><ele>455.0</ele></trkpt>
      <trkpt lat="45.178694" lon="5.784721"><ele>457.6</ele></trkpt>
      <trkpt lat="45.178253" lon="5.784600"><ele>462.4</ele></trkpt>
      <trkpt lat="45.177807" lon="5.784519"><ele>466.9</ele></trkpt>
      <trkpt lat="45.177358" lon="5.784484"><ele>471.1</ele></trkpt>
      <trkpt lat="45.176909" lon="5.784498"><ele>475.5</ele></trkpt>
      <trkpt lat="45.176462" lon="5.784565"><ele>480.2</ele></trkpt>
      <trkpt lat="45.176020" lon="5.784685"><ele>484.9</ele></trkpt>
      <trkpt lat="45.175588" lon="5.784862"><ele>489.3</ele></trkpt>
      <trkpt lat="45.175170" lon="5.785095"><ele>493.5</ele></trkpt>
      <trkpt lat="45.174769" lon="5.785384"><ele>498.0</ele></trkpt>
      <trkpt lat="45.174391" lon="5.785729"><ele>502.8</ele></trkpt>
      <trkpt lat="45.174039" lon="5.786126"><ele>507.4</ele></trkpt>
      <trkpt lat="45.173718" lon="5.786572"><ele>511.7</ele></trkpt>
      <trkpt lat="45.173431" lon="5.787063"><ele>516.0</ele></trkpt>
      <trkpt lat="45.173183" lon="5.787594"><ele>520.6</ele></trkpt>
      <trkpt lat="45.172974" lon="5.788159"><ele>525.4</ele></trkpt>
      <trkpt lat="45.172808" lon="5.788752"><ele>529.9</ele></trkpt>
      <trkpt lat="45.172686" lon="5.789365"><ele>534.1</ele></trkpt>
      <trkpt lat="45.172608" lon="5.789993"><ele>538.5</ele></trkpt>
      <trkpt lat="45.172575" lon="5.790629"><ele>543.2</ele></trkpt>
      <trkpt lat="45.172585" lon="5.791267"><ele>547.9</ele></trkpt>
      <trkpt lat="45.172636" lon="5.791900"><ele>552.3</ele></trkpt>
      <trkpt lat="45.172728" lon="5.792524"><ele>556.5</ele></trkpt>
      <trkpt lat="45.172857" lon="5.793135"><ele>561.0</ele></trkpt>
      <trkpt lat="45.173020" lon="5.793729"><ele>565.8</ele></trkpt>
      <trkpt lat="45.173215" lon="5.794304"><ele>570.4</ele></trkpt>
      <trkpt lat="45.173438" lon="5.794858"><ele>574.7</ele></trkpt>
      <trkpt lat="45.173686" lon="5.795390"><ele>579.0</ele></trkpt>
      <trkpt lat="45.173956" lon="5.795900"><ele>583.6</ele></trkpt>
      <trkpt lat="45.174244" lon="5.796389"><ele>588.4</ele></trkpt>
      <trkpt lat="45.174549" lon="5.796859"><ele>592.9</ele></trkpt>
      <trkpt lat="45.174866" lon="5.797311"><ele>597.1</ele></trkpt>
      <trkpt lat="45.175193" lon="5.797748"><ele>601.5</ele></trkpt>
      <trkpt lat="45.175528" lon="5.798174"><ele>606.2</ele></trkpt>
      <trkpt lat="45.175868" lon="5.798591"><ele>610.9</ele></trkpt>
      <trkpt lat="45.176212" lon="5.799002"><ele>615.3</ele></trkpt>
      <trkpt lat="45.176556" lon="5.799412"><ele>619.5</ele></trkpt>
      <trkpt lat="45.176900" lon="5.799824"><ele>624.1</ele></trkpt>
      <trkpt lat="45.177239" lon="5.800242"><ele>628.8</ele></trkpt>
      <trkpt lat="45.177574" lon="5.800669"><ele>633.4</ele></trkpt>
      <trkpt lat="45.177900" lon="5.801108"><ele>637.7</ele></trkpt>
      <trkpt lat="45.178215" lon="5.801563"><ele>637.6</ele></trkpt>
      <trkpt lat="45.178517" lon="5.802035"><ele>637.9</ele></trkpt>
      <trkpt lat="45.178803" lon="5.802527"><ele>638.4</ele></trkpt>
      <trkpt lat="45.179070" lon="5.803041"><ele>638.5</ele></trkpt>
      <trkpt lat="45.179315" lon="5.803576"><ele>638.3</ele></trkpt>
      <trkpt lat="45.179534" lon="5.804132"><ele>638.4</ele></trkpt>
      <trkpt lat="45.179725" lon="5.804710"><ele>638.8</ele></trkpt>
      <trkpt lat="45.179883" lon="5.805307"><ele>639.1</ele></trkpt>
      <trkpt lat="45.180007" lon="5.805920"><ele>639.1</ele></trkpt>
      <trkpt lat="45.180093" lon="5.806546"><ele>639.0</ele></trkpt>
      <trkpt lat="45.180139" lon="5.807180"><ele>639.2</ele></trkpt>
      <trkpt lat="45.180143" lon="5.807818"><ele>639.6</ele></trkpt>
      <trkpt lat="45.180103" lon="5.808453"><ele>639.9</ele></trkpt>
      <trkpt lat="45.180019" lon="5.809080"><ele>639.8</ele></trkpt>
      <trkpt lat="45.179891" lon="5.809691"><ele>639.7</ele></trkpt>
      <trkpt lat="45.179719" lon="5.810280"><ele>640.1</ele></trkpt>
      <trkpt lat="45.179504" lon="5.810841"><ele>640.5</ele></trkpt>
      <trkpt lat="45.179250" lon="5.811366"><ele>640.6</ele></trkpt>
      <trkpt lat="45.178958" lon="5.811852"><ele>640.4</ele></trkpt>
      <trkpt lat="45.178633" lon="5.812291"><ele>640.5</ele></trkpt>
      <trkpt lat="45.178277" lon="5.812681"><ele>637.8</ele></trkpt>
      <trkpt lat="45.177895" lon="5.813018"><ele>634.9</ele></trkpt>
      <trkpt lat="45.177492" lon="5.813299"><ele>631.8</ele></trkpt>
      <trkpt lat="45.177071" lon="5.813524"><ele>628.5</ele></trkpt>
      <trkpt lat="45.176638" lon="5.813693"><ele>625.6</ele></trkpt>
      <trkpt lat="45.176195" lon="5.813806"><ele>622.9</ele></trkpt>
      <trkpt lat="45.175747" lon="5.813864"><ele>619.9</ele></trkpt>
      <trkpt lat="45.175298" lon="5.813871"><ele>616.7</ele></trkpt>
      <trkpt lat="45.174849" lon="5.813830"><ele>613.5</ele></trkpt>
      <trkpt lat="45.174404" lon="5.813743"><ele>610.7</ele></trkpt>
      <trkpt lat="45.173963" lon="5.813616"><ele>607.9</ele></trkpt>
      <trkpt lat="45.173529" lon="5.813451"><ele>604.8</ele></trkpt>
      <trkpt lat="45.173101" lon="5.813255"><ele>601.6</ele></trkpt>
      <trkpt lat="45.172680" lon="5.813030"><ele>598.5</ele></trkpt>
      <trkpt lat="45.172266" lon="5.812783"><ele>595.8</ele></trkpt>
      <trkpt lat="45.171857" lon="5.812516"><ele>592.9</ele></trkpt>
      <trkpt lat="45.171454" lon="5.812234"><ele>589.7</ele></trkpt>
      <trkpt lat="45.171054" lon="5.811943"><ele>586.5</ele></trkpt>
      <trkpt lat="45.170656" lon="5.811645"><ele>583.6</ele></trkpt>
      <trkpt lat="45.170259" lon="5.811346"><ele>580.9</ele></trkpt>
      <trkpt lat="45.169861" lon="5.811049"><ele>577.9</ele></trkpt>
      <trkpt lat="45.169461" lon="5.810759"><ele>574.6</ele></trkpt>
      <trkpt lat="45.169056" lon="5.810480"><ele>571.5</ele></trkpt>
      <trkpt lat="45.168647" lon="5.810217"><ele>568.7</ele></trkpt>
      <trkpt lat="45.168231" lon="5.809973"><ele>565.9</ele></trkpt>
      <trkpt lat="45.167809" lon="5.809753"><ele>562.8</ele></trkpt>
      <trkpt lat="45.167380" lon="5.809561"><ele>559.6</ele></trkpt>
      <trkpt lat="45.166945" lon="5.809403"><ele>556.5</ele></trkpt>
      <trkpt lat="45.166503" lon="5.809283"><ele>553.8</ele></trkpt>
      <trkpt lat="45.166057" lon="5.809204"><ele>550.9</ele></trkpt>
      <trkpt lat="45.165608" lon="5.809171"><ele>547.7</ele></trkpt>
      <trkpt lat="45.165159" lon="5.809187"><ele>544.5</ele></trkpt>
      <trkpt lat="45.164712" lon="5.809255"><ele>541.6</ele></trkpt>
      <trkpt lat="45.164271" lon="5.809377"><ele>538.9</ele></trkpt>
      <trkpt lat="45.163839" lon="5.809556"><ele>535.9</ele></trkpt>
      <trkpt lat="45.163421" lon="5.809791"><ele>532.6</ele></trkpt>
      <trkpt lat="45.163021" lon="5.810082"><ele>529.5</ele></trkpt>
      <trkpt lat="45.162644" lon="5.810428"><ele>526.7</ele></trkpt>
      <trkpt lat="45.162293" lon="5.810827"><ele>523.9</ele></trkpt>
      <trkpt lat="45.161973" lon="5.811275"><ele>520.8</ele></trkpt>
      <trkpt lat="45.161688" lon="5.811768"><ele>517.5</ele></trkpt>
      <trkpt lat="45.161441" lon="5.812300"><ele>514.5</ele></trkpt>
      <trkpt lat="45.161234" lon="5.812866"><ele>511.8</ele></trkpt>
      <trkpt lat="45.161069" lon="5.813459"><ele>508.9</ele></trkpt>
      <trkpt lat="45.160949" lon="5.814073"><ele>505.7</ele></trkpt>
      <trkpt lat="45.160872" lon="5.814702"><ele>502.5</ele></trkpt>
      <trkpt lat="45.160840" lon="5.815337"><ele>499.6</ele></trkpt>
      <trkpt lat="45.160852" lon="5.815975"><ele>496.9</ele></trkpt>
      <trkpt lat="45.160905" lon="5.816608"><ele>493.9</ele></trkpt>
      <trkpt lat="45.160998" lon="5.817232"><ele>490.6</ele></trkpt>
      <trkpt lat="45.161128" lon="5.817842"><ele>488.5</ele></trkpt>
      <trkpt lat="45.161292" lon="5.818435"><ele>486.7</ele></trkpt>
      <trkpt lat="45.161488" lon="5.819009"><ele>484.9</ele></trkpt>
      <trkpt lat="45.161712" lon="5.819562"><ele>482.8</ele></trkpt>
      <trkpt lat="45.161961" lon="5.820093"><ele>480.5</ele></trkpt>
      <trkpt lat="45.162232" lon="5.820602"><ele>478.5</ele></trkpt>
      <trkpt lat="45.162521" lon="5.821091"><ele>476.8</ele></trkpt>
      <trkpt lat="45.162826" lon="5.821560"><ele>474.9</ele></trkpt>
      <trkpt lat="45.163143" lon="5.822011"><ele>472.7</ele></trkpt>
      <trkpt lat="45.163471" lon="5.822448"><ele>470.5</ele></trkpt>
      <trkpt lat="45.163806" lon="5.822873"><ele>468.6</ele></trkpt>
      <trkpt lat="45.164147" lon="5.823289"><ele>466.9</ele></trkpt>
      <trkpt lat="45.164490" lon="5.823701"><ele>464.9</ele></trkpt>
      <trkpt lat="45.164835" lon="5.824111"><ele>462.6</ele></trkpt>
      <trkpt lat="45.165178" lon="5.824523"><ele>460.5</ele></trkpt>
      <trkpt lat="45.165517" lon="5.824941"><ele>458.7</ele></trkpt>
      <trkpt lat="45.165851" lon="5.825368"><ele>456.9</ele></trkpt>
      <trkpt lat="45.166177" lon="5.825808"><ele>454.8</ele></trkpt>
      <trkpt lat="45.166492" lon="5.826263"><ele>452.5</ele></trkpt>
      <trkpt lat="45.166794" lon="5.826736"><ele>450.6</ele></trkpt>
      <trkpt lat="45.167079" lon="5.827228"><ele>448.8</ele></trkpt>
      <trkpt lat="45.167345" lon="5.827742"><ele>446.9</ele></trkpt>
      <trkpt lat="45.167589" lon="5.828278"><ele>444.7</ele></trkpt>
      <trkpt lat="45.167808" lon="5.828835"><ele>442.5</ele></trkpt>
      <trkpt lat="45.167997" lon="5.829414"><ele>440.6</ele></trkpt>
      <trkpt lat="45.168155" lon="5.830011"><ele>438.9</ele></trkpt>
      <trkpt lat="45.168277" lon="5.830625"><ele>436.9</ele></trkpt>
      <trkpt lat="45.168362" lon="5.831251"><ele>434.6</ele></trkpt>
      <trkpt lat="45.168406" lon="5.831885"><ele>432.5</ele></trkpt>
      <trkpt lat="45.168408" lon="5.832523"><ele>430.7</ele></trkpt>
      <trkpt lat="45.168367" lon="5.833158"><ele>428.9</ele></trkpt>
      <trkpt lat="45.168281" lon="5.833784"><ele>426.8</ele></trkpt>
      <trkpt lat="45.168151" lon="5.834394"><ele>424.5</ele></trkpt>
      <trkpt lat="45.167978" lon="5.834982"><ele>422.6</ele></trkpt>
      <trkpt lat="45.167762" lon="5.835541"><ele>420.8</ele></trkpt>
      <trkpt lat="45.167506" lon="5.836066"><ele>418.9</ele></trkpt>
      <trkpt lat="45.167213" lon="5.836549"><ele>416.7</ele></trkpt>
      <trkpt lat="45.166886" lon="5.836987"><ele>414.5</ele></trkpt>
      <trkpt lat="45.166530" lon="5.837375"><ele>412.7</ele></trkpt>
      <trkpt lat="45.166147" lon="5.837710"><ele>410.9</ele></trkpt>
      <trkpt lat="45.165743" lon="5.837989"><ele>408.9</ele></trkpt>
      <trkpt lat="45.165322" lon="5.838212"><ele>406.6</ele></trkpt>
      <trkpt lat="45.164888" lon="5.838379"><ele>404.5</ele></trkpt>
      <trkpt lat="45.164445" lon="5.838490"><ele>402.8</ele></trkpt>
      <trkpt lat="45.163998" lon="5.838546"><ele>400.9</ele></trkpt>
      <trkpt lat="45.163548" lon="5.838552"><ele>398.8</ele></trkpt>
      <trkpt lat="45.163099" lon="5.838508"><ele>396.5</ele></trkpt>
      <trkpt lat="45.162654" lon="5.838420"><ele>394.6</ele></trkpt>
      <trkpt lat="45.162214" lon="5.838291"><ele>392.9</ele></trkpt>
      <trkpt lat="45.161780" lon="5.838126"><ele>390.9</ele></trkpt>
    </trkseg>
  </trk>
</gpx>
